{
    "type": "FeatureCollection",
    "features": [
        {
            "type": "Feature",
            "id": "relation/41485",
            "properties": {
                "admin_level": "8",
                "boundary": "administrative",
                "name": "Roma",
                "name:ar": "روما",
                "name:azb": "روم",
                "name:ckb": "ڕۆما",
                "name:cs": "Řím",
                "name:de": "Rom",
                "name:el": "Ρώμη",
                "name:en": "Rome",
                "name:es": "Roma",
                "name:fa": "رم",
                "name:fi": "Rooma",
                "name:fr": "Rome",
                "name:hu": "Róma",
                "name:it": "Roma",
                "name:ks": "روم",
                "name:lrc": "روم",
                "name:mi": "Rōma",
                "name:nl": "Rome",
                "name:pl": "Rzym",
                "name:pnb": "روم",
                "name:ru": "Рим",
                "name:sd": "روم",
                "name:sk": "Rím",
                "name:sl": "Rim",
                "name:sv": "Rom",
                "name:szl": "Rzim",
                "name:ug": "رىم",
                "name:ur": "روم",
                "name:vi": "Rô-ma",
                "official_name": "Roma Capitale",
                "official_name:ar": "روما العاصمة",
                "old_name:vi": "La Mã",
                "old_official_name": "Comune di Roma",
                "population": "2848084",
                "population:date": "2019",
                "ref:ISTAT": "058091",
                "ref:catasto": "H501",
                "type": "boundary",
                "wikidata": "Q220",
                "wikipedia": "it:Roma Capitale",
                "id": "relation/41485"
            },
            "geometry": {
                "type": "MultiPolygon",
                "coordinates": [
                    [
                        [ 
                           
                        ]
                    ],
                    [
                        [ 
                           
                        ],
                        [ 
                           
                        ]
                    ]
                ]
            }
        }
    ]
}